ION SCV-004             
1 50993U 22002K   26068.68892644  .00006538  00000+0  23198-3 0  9998
2 50993  97.2961 128.2294 0007216   1.6783 358.4480 15.29369331230088
STARLINK-33675          
1 63423U 25065AA  26068.81925485  .00019898  00000+0  73134-3 0  9995
2 63423  43.0036 105.9498 0001705 275.2064  84.8593 15.27549495 52860
